NORAD_CAT_ID,OBJECT_NAME,OBJECT_TYPE,EPOCH,MEAN_MOTION,ECCENTRICITY,INCLINATION,RA_OF_ASC_NODE,ARG_OF_PERICENTER,MEAN_ANOMALY,BSTAR,MEAN_MOTION_DOT,MEAN_MOTION_DDOT,TLE_LINE0,TLE_LINE1,TLE_LINE2,SEMIMAJOR_AXIS,PERIOD,APOGEE,PERIGEE,DECAYED
52679.0,STARLINK-4031,PAYLOAD,2023-12-29 13:46:05,15.08837812,0.0001242,53.2165,140.4688,99.3316,260.7817,3.7914e-05,3.16e-06,0.0,0 STARLINK-4031,1 52679U 22053Z   23363.57368025  .00000316  00000-0  37914-4 0  9992,2 52679  53.2165 140.4688 0001242  99.3316 260.7817 15.08837812 90197,6917.887,95.438,540.611,538.893,0.0
52679.0,STARLINK-4031,PAYLOAD,2023-12-29 16:56:52,15.08842065,0.00013,53.2167,139.8739,85.3407,274.7733,2.8243e-05,1.62e-06,0.0,0 STARLINK-4031,1 52679U 22053Z   23363.70615905  .00000162  00000-0  28243-4 0  9993,2 52679  53.2167 139.8739 0001300  85.3407 274.7733 15.08842065 89825,6917.874,95.437,540.638,538.84,0.0
52679.0,STARLINK-4031,PAYLOAD,2023-12-30 13:36:52,15.08843685,0.0001162,53.2165,136.0096,99.0796,261.0328,1.3996e-05,-6.5e-07,0.0,0 STARLINK-4031,1 52679U 22053Z   23364.56727794 -.00000065  00000-0  13996-4 0  9990,2 52679  53.2165 136.0096 0001162  99.0796 261.0328 15.08843685 90344,6917.869,95.437,540.538,538.93,0.0
52679.0,STARLINK-4031,PAYLOAD,2023-12-30 15:12:16,15.0884348,0.000137,53.2169,135.7139,75.7479,284.3665,3.3145e-05,2.4e-06,0.0,0 STARLINK-4031,1 52679U 22053Z   23364.63351888  .00000240  00000-0  33145-4 0  9997,2 52679  53.2169 135.7139 0001370  75.7479 284.3665 15.08843480 90358,6917.87,95.437,540.683,538.787,0.0
52679.0,STARLINK-4031,PAYLOAD,2023-12-31 08:41:30,15.08836775,0.0001542,53.2169,132.4432,67.605,292.5106,4.8395e-05,4.82e-06,0.0,0 STARLINK-4031,1 52679U 22053Z   23365.36216287  .00000482  00000-0  48395-4 0  9992,2 52679  53.2169 132.4432 0001542  67.6050 292.5106 15.08836775 90073,6917.89,95.438,540.822,538.689,0.0
52679.0,STARLINK-4031,PAYLOAD,2023-12-31 15:03:03,15.08837578,0.0001455,53.2168,131.2532,70.017,290.0978,1.8155e-05,1e-08,0.0,0 STARLINK-4031,1 52679U 22053Z   23365.62712337  .00000001  00000-0  18155-4 0  9996,2 52679  53.2168 131.2532 0001455  70.0170 290.0978 15.08837578 90504,6917.888,95.438,540.759,538.746,0.0
52679.0,STARLINK-4031,PAYLOAD,2024-01-01 11:43:03,15.08839862,0.0001272,53.2168,127.3872,89.4022,270.7116,2.2603e-05,7.2e-07,0.0,0 STARLINK-4031,1 52679U 22053Z   24001.48824068  .00000072  00000-0  22603-4 0  9994,2 52679  53.2168 127.3872 0001272  89.4022 270.7116 15.08839862 90242,6917.881,95.438,540.626,538.866,0.0
52679.0,STARLINK-4031,PAYLOAD,2024-01-01 13:18:27,15.08840514,0.0001311,53.2169,127.0901,86.0291,274.0851,2.6604e-05,1.36e-06,0.0,0 STARLINK-4031,1 52679U 22053Z   24001.55448023  .00000136  00000-0  26604-4 0  9991,2 52679  53.2169 127.0901 0001311  86.0291 274.0851 15.08840514 90641,6917.879,95.438,540.651,538.837,0.0
52679.0,STARLINK-4031,PAYLOAD,2024-01-01 18:04:36,15.0884613,0.0001331,53.217,126.1952,103.8739,256.2401,8.2187e-06,-1.57e-06,0.0,0 STARLINK-4031,1 52679U 22053Z   24001.75319577 -.00000157  00000-0  82187-5 0  9997,2 52679  53.2170 126.1952 0001331 103.8739 256.2401 15.08846130 90289,6917.862,95.437,540.647,538.806,0.0
52679.0,STARLINK-4031,PAYLOAD,2024-01-02 11:33:51,15.08837208,0.0001242,53.2168,122.9263,89.1908,270.9226,2.1198e-05,5e-07,0.0,0 STARLINK-4031,1 52679U 22053Z   24002.48184246  .00000050  00000-0  21198-4 0  9996,2 52679  53.2168 122.9263 0001242  89.1908 270.9226 15.08837208 90396,6917.889,95.438,540.613,538.895,0.0
52679.0,STARLINK-4031,PAYLOAD,2024-01-02 14:44:37,15.08840839,0.0001321,53.2168,122.3306,84.8986,275.2157,4.5393e-05,4.35e-06,0.0,0 STARLINK-4031,1 52679U 22053Z   24002.61432012  .00000435  00000-0  45393-4 0  9998,2 52679  53.2168 122.3306 0001321  84.8986 275.2157 15.08840839 90805,6917.878,95.438,540.657,538.829,0.0
52679.0,STARLINK-4031,PAYLOAD,2024-01-03 13:00:01,15.08837485,0.0001602,53.217,118.1644,114.3634,245.7525,-4.6292e-05,-1.025e-05,0.0,0 STARLINK-4031,1 52679U 22053Z   24003.54168617 -.00001025  00000-0 -46292-4 0  9995,2 52679  53.2170 118.1644 0001602 114.3634 245.7525 15.08837485 90946,6917.888,95.438,540.861,538.645,0.0
52679.0,STARLINK-4031,PAYLOAD,2024-01-04 12:50:48,15.08838188,0.0001405,53.217,113.7061,96.1104,264.0049,2.9148e-05,1.76e-06,0.0,0 STARLINK-4031,1 52679U 22053Z   24004.53528742  .00000176  00000-0  29148-4 0  9999,2 52679  53.2170 113.7061 0001405  96.1104 264.0049 15.08838188 91093,6917.886,95.438,540.723,538.779,0.0
52679.0,STARLINK-4031,PAYLOAD,2024-01-04 16:01:34,15.08844688,0.0001477,53.2171,113.1112,92.4364,267.6797,1.4711e-05,-5.4e-07,0.0,0 STARLINK-4031,1 52679U 22053Z   24004.66776406 -.00000054  00000-0  14711-4 0  9991,2 52679  53.2171 113.1112 0001477  92.4364 267.6797 15.08844688 90721,6917.866,95.437,540.753,538.709,0.0
52679.0,STARLINK-4031,PAYLOAD,2024-01-05 12:41:36,15.08838875,0.0001349,53.2172,109.2486,87.0417,273.073,1.8334e-06,-2.59e-06,0.0,0 STARLINK-4031,1 52679U 22053Z   24005.52889172 -.00000259  00000-0  18334-5 0  9995,2 52679  53.2172 109.2486 0001349  87.0417 273.0730 15.08838875 90852,6917.884,95.438,540.682,538.816,0.0
52679.0,STARLINK-4031,PAYLOAD,2024-01-05 14:16:59,15.08839691,0.0001389,53.2173,108.9506,89.8586,270.2565,2.8178e-05,1.61e-06,0.0,0 STARLINK-4031,1 52679U 22053Z   24005.59513037  .00000161  00000-0  28178-4 0  9993,2 52679  53.2173 108.9506 0001389  89.8586 270.2565 15.08839691 91250,6917.881,95.438,540.707,538.785,0.0
52679.0,STARLINK-4031,PAYLOAD,2024-01-06 12:32:23,15.08844524,0.0001406,53.2172,104.7872,74.7331,285.3816,2.3494e-05,8.6e-07,0.0,0 STARLINK-4031,1 52679U 22053Z   24006.52248915  .00000086  00000-0  23494-4 0  9999,2 52679  53.2172 104.7872 0001406  74.7331 285.3816 15.08844524 91392,6917.867,95.437,540.704,538.759,0.0
52679.0,STARLINK-4031,PAYLOAD,2024-01-06 15:43:09,15.08846677,0.0001387,53.2172,104.1921,79.6158,280.4991,7.6385e-05,9.28e-06,0.0,0 STARLINK-4031,1 52679U 22053Z   24006.65496550  .00000928  00000-0  76385-4 0  9995,2 52679  53.2172 104.1921 0001387  79.6158 280.4991 15.08846677 91021,6917.86,95.437,540.684,538.765,0.0
52679.0,STARLINK-4031,PAYLOAD,2024-01-07 12:23:09,15.08844697,0.0001345,53.2168,100.3262,94.2098,265.9048,5.3552e-05,5.65e-06,0.0,0 STARLINK-4031,1 52679U 22053Z   24007.51608645  .00000565  00000-0  53552-4 0  9999,2 52679  53.2168 100.3262 0001345  94.2098 265.9048 15.08844697 91157,6917.866,95.437,540.661,538.801,0.0
52679.0,STARLINK-4031,PAYLOAD,2024-01-07 15:33:55,15.08848146,0.0001354,53.2169,99.7312,92.3374,267.7773,7.6321e-05,9.27e-06,0.0,0 STARLINK-4031,1 52679U 22053Z   24007.64856333  .00000927  00000-0  76321-4 0  9993,2 52679  53.2169  99.7312 0001354  92.3374 267.7773 15.08848146 91564,6917.855,95.437,540.657,538.784,0.0
52679.0,STARLINK-4031,PAYLOAD,2024-01-08 12:13:56,15.08845397,0.0001384,53.217,95.8647,95.6487,264.4663,8.7284e-06,-1.49e-06,0.0,0 STARLINK-4031,1 52679U 22053Z   24008.50968603 -.00000149  00000-0  87284-5 0  9991,2 52679  53.2170  95.8647 0001384  95.6487 264.4663 15.08845397 91699,6917.864,95.437,540.686,538.771,0.0
52679.0,STARLINK-4031,PAYLOAD,2024-01-09 12:04:43,15.08844732,0.0001472,53.2174,91.4065,88.3615,271.7546,-1.3563e-06,-3.1e-06,0.0,0 STARLINK-4031,1 52679U 22053Z   24009.50328628 -.00000310  00000-0 -13563-5 0  9999,2 52679  53.2174  91.4065 0001472  88.3615 271.7546 15.08844732 91456,6917.866,95.437,540.749,538.713,0.0
52679.0,STARLINK-4031,PAYLOAD,2024-01-09 15:15:29,15.08846098,0.0001391,53.217,90.8102,98.643,261.4719,2.2032e-05,6.3e-07,0.0,0 STARLINK-4031,1 52679U 22053Z   24009.63576370  .00000063  00000-0  22032-4 0  9995,2 52679  53.2170  90.8102 0001391  98.6430 261.4719 15.08846098 91866,6917.862,95.437,540.689,538.764,0.0
52679.0,STARLINK-4031,PAYLOAD,2024-01-10 10:20:09,15.08756576,0.0001888,53.2177,87.2392,92.7372,267.3837,0.0010225,0.00015986,0.0,0 STARLINK-4031,1 52679U 22053Z   24010.43066642  .00015986  00000-0  10225-2 0  9990,2 52679  53.2177  87.2392 0001888  92.7372 267.3837 15.08756576 91592,6918.135,95.443,541.307,538.694,0.0
52679.0,STARLINK-4031,PAYLOAD,2024-01-10 15:06:17,15.08828193,0.0001474,53.2178,86.3465,101.9356,258.1801,0.00013689,1.891e-05,0.0,0 STARLINK-4031,1 52679U 22053Z   24010.62937328  .00001891  00000-0  13689-3 0  9997,2 52679  53.2178  86.3465 0001474 101.9356 258.1801 15.08828193 91628,6917.916,95.438,540.801,538.762,0.0
52679.0,STARLINK-4031,PAYLOAD,2024-01-11 03:49:22,15.08777641,0.0001825,53.218,83.9671,106.7716,253.3476,0.00069679,0.000108,0.0,0 STARLINK-4031,1 52679U 22053Z   24011.15929364  .00010800  00000-0  69679-3 0  9997,2 52679  53.2180  83.9671 0001825 106.7716 253.3476 15.08777641 91701,6918.071,95.441,541.199,538.673,0.0
52679.0,STARLINK-4031,PAYLOAD,2024-01-11 10:10:54,15.08845526,0.0001499,53.2163,82.7825,105.5437,254.5721,-2.0654e-06,-3.21e-06,0.0,0 STARLINK-4031,1 52679U 22053Z   24011.42424608 -.00000321  00000-0 -20654-5 0  9999,2 52679  53.2163  82.7825 0001499 105.5437 254.5721 15.08845526 91742,6917.863,95.437,540.765,538.692,0.0
52679.0,STARLINK-4031,PAYLOAD,2024-01-12 11:37:05,15.08836329,0.0001355,53.2164,78.0228,95.0426,265.0721,8.6482e-06,-1.5e-06,0.0,0 STARLINK-4031,1 52679U 22053Z   24012.48409624 -.00000150  00000-0  86482-5 0  9997,2 52679  53.2164  78.0228 0001355  95.0426 265.0721 15.08836329 91906,6917.892,95.438,540.694,538.819,0.0
52679.0,STARLINK-4031,PAYLOAD,2024-01-13 11:27:52,15.08842888,0.0001776,53.2177,73.5644,102.1766,257.9425,3.8047e-05,3.18e-06,0.0,0 STARLINK-4031,1 52679U 22053Z   24013.47769423  .00000318  00000-0  38047-4 0  9991,2 52679  53.2177  73.5644 0001776 102.1766 257.9425 15.08842888 92444,6917.872,95.437,540.965,538.508,0.0
52679.0,STARLINK-4031,PAYLOAD,2024-01-14 03:21:44,15.08818532,0.0001498,53.2177,70.5956,82.9577,277.1585,0.00034383,5.185e-05,0.0,0 STARLINK-4031,1 52679U 22053Z   24014.14009859  .00005185  00000-0  34383-3 0  9991,2 52679  53.2177  70.5956 0001498  82.9577 277.1585 15.08818532 92151,6917.946,95.439,540.847,538.775,0.0
